
# Worst residual: 3.51 km
# MJD 57640.000000 (2016 Sep  9  0:00)
1969-046E = NORAD 03955 = Vela 5b
1 03955U 69046E   16253.49921083  .00000000  00000-0  00000-0 0 13467
2 03955 052.5595 296.6754 7977218 076.5342 267.2354 00.21377046    01

# Worst residual: 23.69 km
# MJD 57641.000000 (2016 Sep 10  0:00)
1969-046E = NORAD 03955 = Vela 5b
1 03955U 69046E   16254.49921083  .00000000  00000-0  00000-0 0 13468
2 03955 052.5507 296.5374 7967491 076.5641 344.1532 00.21403810    07

# Worst residual: 9.70 km
# MJD 57642.000000 (2016 Sep 11  0:00)
1969-046E = NORAD 03955 = Vela 5b
1 03955U 69046E   16255.49921083  .00000000  00000-0  00000-0 0 13469
2 03955 052.5298 296.4229 7970247 076.5808 061.1383 00.21373895    09

# Worst residual: 4.07 km
# MJD 57643.000000 (2016 Sep 12  0:00)
1969-046E = NORAD 03955 = Vela 5b
1 03955U 69046E   16256.49921083  .00000000  00000-0  00000-0 0 13460
2 03955 052.5104 296.3198 7973169 076.6268 138.0057 00.21366051    04

# Worst residual: 3.26 km
# MJD 57644.000000 (2016 Sep 13  0:00)
1969-046E = NORAD 03955 = Vela 5b
1 03955U 69046E   16257.49921083  .00000000  00000-0  00000-0 0 13461
2 03955 052.4909 296.2201 7976299 076.6647 214.9909 00.21373974    00

# Worst residual: 4.45 km
# MJD 57645.000000 (2016 Sep 14  0:00)
1969-046E = NORAD 03955 = Vela 5b
1 03955U 69046E   16258.49921083  .00000000  00000-0  00000-0 0 13462
2 03955 052.4704 296.1318 7978137 076.7017 292.0408 00.21373175    00

# Worst residual: 30.44 km
# MJD 57646.000000 (2016 Sep 15  0:00)
1969-046E = NORAD 03955 = Vela 5b
1 03955U 69046E   16259.49921083  .00000000  00000-0  00000-0 0 13463
2 03955 052.4593 296.0197 7974599 076.7777 009.0598 00.21431024    05

# Worst residual: 13.76 km
# MJD 57647.000000 (2016 Sep 16  0:00)
1969-046E = NORAD 03955 = Vela 5b
1 03955U 69046E   16260.49921083  .00000000  00000-0  00000-0 0 13465
2 03955 052.4054 295.8804 7980651 076.8133 086.0077 00.21389712    05

# Worst residual: 8.99 km
# MJD 57648.000000 (2016 Sep 17  0:00)
1969-046E = NORAD 03955 = Vela 5b
1 03955U 69046E   16261.49921083  .00000000  00000-0  00000-0 0 13466
2 03955 052.3918 295.7958 7976510 076.9194 162.6971 00.21357230    03

# Worst residual: 5.46 km
# MJD 57649.000000 (2016 Sep 18  0:00)
1969-046E = NORAD 03955 = Vela 5b
1 03955U 69046E   16262.49921083  .00000000  00000-0  00000-0 0 13467
2 03955 052.3846 295.7826 7974177 076.9366 239.4795 00.21358528    03

# Worst residual: 8.67 km
# MJD 57650.000000 (2016 Sep 19  0:00)
1969-046E = NORAD 03955 = Vela 5b
1 03955U 69046E   16263.49921083  .00000000  00000-0  00000-0 0 13468
2 03955 052.3683 295.6907 7974408 077.0030 316.3781 00.21372803    00

# Worst residual: 21.05 km
# MJD 57651.000000 (2016 Sep 20  0:00)
1969-046E = NORAD 03955 = Vela 5b
1 03955U 69046E   16264.49921083  .00000000  00000-0  00000-0 0 13469
2 03955 052.3585 295.5768 7974107 077.0817 033.3308 00.21352604    02

# Worst residual: 3.30 km
# MJD 57652.000000 (2016 Sep 21  0:00)
1969-046E = NORAD 03955 = Vela 5b
1 03955U 69046E   16265.49921083  .00000000  00000-0  00000-0 0 13460
2 03955 052.3242 295.4623 7967105 077.1634 110.3308 00.21359563    06

# Worst residual: 3.79 km
# MJD 57653.000000 (2016 Sep 22  0:00)
1969-046E = NORAD 03955 = Vela 5b
1 03955U 69046E   16266.49921083  .00000000  00000-0  00000-0 0 13461
2 03955 052.3172 295.4042 7965934 077.1855 187.2413 00.21359701    00

# Worst residual: 8.62 km
# MJD 57654.000000 (2016 Sep 23  0:00)
1969-046E = NORAD 03955 = Vela 5b
1 03955U 69046E   16267.49921083  .00000000  00000-0  00000-0 0 13462
2 03955 052.2993 295.3203 7965049 077.2504 264.0459 00.21371219    09

# Worst residual: 34.14 km
# MJD 57655.000000 (2016 Sep 24  0:00)
1969-046E = NORAD 03955 = Vela 5b
1 03955U 69046E   16268.49921083  .00000000  00000-0  00000-0 0 13463
2 03955 052.2852 295.2055 7955451 077.3174 340.8830 00.21434783    09

# Worst residual: 17.53 km
# MJD 57656.000000 (2016 Sep 25  0:00)
1969-046E = NORAD 03955 = Vela 5b
1 03955U 69046E   16269.49921083  .00000000  00000-0  00000-0 0 13464
2 03955 052.2580 295.0929 7960095 077.2728 057.9996 00.21413345    09

# Worst residual: 3.49 km
# MJD 57657.000000 (2016 Sep 26  0:00)
1969-046E = NORAD 03955 = Vela 5b
1 03955U 69046E   16270.49921083  .00000000  00000-0  00000-0 0 13466
2 03955 052.2357 294.9856 7958313 077.3569 134.9343 00.21387517    05

# Worst residual: 8.80 km
# MJD 57658.000000 (2016 Sep 27  0:00)
1969-046E = NORAD 03955 = Vela 5b
1 03955U 69046E   16271.49921083  .00000000  00000-0  00000-0 0 13467
2 03955 052.2310 294.9580 7950434 077.3466 212.0195 00.21376243    07

# Worst residual: 8.87 km
# MJD 57659.000000 (2016 Sep 28  0:00)
1969-046E = NORAD 03955 = Vela 5b
1 03955U 69046E   16272.49921083  .00000000  00000-0  00000-0 0 13468
2 03955 052.2116 294.9644 7945371 077.2711 289.1429 00.21349823    07

# Worst residual: 18.31 km
# MJD 57660.000000 (2016 Sep 29  0:00)
1969-046E = NORAD 03955 = Vela 5b
1 03955U 69046E   16273.49921083  .00000000  00000-0  00000-0 0 13469
2 03955 052.1980 294.8589 7946595 077.3453 006.0731 00.21349552    06

# Worst residual: 4.79 km
# MJD 57661.000000 (2016 Sep 30  0:00)
1969-046E = NORAD 03955 = Vela 5b
1 03955U 69046E   16274.49921083  .00000000  00000-0  00000-0 0 13460
2 03955 052.1294 294.7074 7944443 077.4033 083.0403 00.21367179    03

# Worst residual: 3.96 km
# MJD 57662.000000 (2016 Oct  1  0:00)
1969-046E = NORAD 03955 = Vela 5b
1 03955U 69046E   16275.49921083  .00000000  00000-0  00000-0 0 13461
2 03955 052.0901 294.5550 7940457 077.4811 160.0335 00.21364858    00

# Worst residual: 5.13 km
# MJD 57663.000000 (2016 Oct  2  0:00)
1969-046E = NORAD 03955 = Vela 5b
1 03955U 69046E   16276.49921083  .00000000  00000-0  00000-0 0 13462
2 03955 052.0650 294.4087 7939454 077.5336 237.0932 00.21363790    05

# Worst residual: 14.41 km
# MJD 57664.000000 (2016 Oct  3  0:00)
1969-046E = NORAD 03955 = Vela 5b
1 03955U 69046E   16277.49921083  .00000000  00000-0  00000-0 0 13463
2 03955 052.0577 294.2129 7940159 077.6274 314.1077 00.21354733    08

# Worst residual: 28.84 km
# MJD 57665.000000 (2016 Oct  4  0:00)
1969-046E = NORAD 03955 = Vela 5b
1 03955U 69046E   16278.49921083  .00000000  00000-0  00000-0 0 13464
2 03955 052.0557 294.0883 7941972 077.7238 030.9641 00.21308106    09

# Worst residual: 10.73 km
# MJD 57666.000000 (2016 Oct  5  0:00)
1969-046E = NORAD 03955 = Vela 5b
1 03955U 69046E   16279.49921083  .00000000  00000-0  00000-0 0 13465
2 03955 052.0372 293.9995 7934530 077.7343 108.0766 00.21361148    05

# Worst residual: 4.94 km
# MJD 57667.000000 (2016 Oct  6  0:00)
1969-046E = NORAD 03955 = Vela 5b
1 03955U 69046E   16280.49921083  .00000000  00000-0  00000-0 0 13467
2 03955 052.0416 293.9818 7937330 077.6732 185.2786 00.21381064    08
